STARLINK-31628          
1 59342U 24057Y   26068.33757157  .00000281  00000+0  19748-4 0  9994
2 59342  43.0018 189.1939 0001615 264.7725  95.2943 15.27576972109785
FLOCK 4G-23             
1 62647U 25009AQ  26068.71663397  .00012440  00000+0  46816-3 0  9993
2 62647  97.3979 150.9478 0000905   7.2707 352.8545 15.27262579 63728
